STARLINK-32786          
1 62528U 25004T   26068.42956381  .00046990  00000+0  17049-2 0  9994
2 62528  43.0000 220.9248 0001643 257.5437 102.5230 15.27605327 65479
TEVEL2-5                
1 63214U 25052E   26068.96660006  .00021339  00000+0  71765-3 0  9991
2 63214  97.4013 325.3677 0004700  95.3936 264.7842 15.30817434 54919
